0 OPTUS A2 (AUSSAT 2)
1 16275U 85109C   13277.56421337 -.00000130  00000-0  10000-3 0  3785
2 16275 014.3570 023.3801 0004800 132.8731 227.1776 00.99956595 91725
0 OPTUS A2 (AUSSAT 2)
1 16275U 85109C   13279.56497794 -.00000152  00000-0  10000-3 0  3792
2 16275 014.3592 023.3575 0004848 132.4913 227.5541 00.99956723 91746
0 OPTUS A2 (AUSSAT 2)
1 16275U 85109C   13281.56575143 -.00000175  00000-0  10000-3 0  3807
2 16275 014.3616 023.3348 0004884 132.1769 227.8663 00.99956765 91763
0 OPTUS A2 (AUSSAT 2)
1 16275U 85109C   13282.56615205  .00000000  00000-0  10000-3 0  3820
2 16275 014.3658 023.3229 0004514 160.0457 199.9775 00.99952656 91770
0 OPTUS A2 (AUSSAT 2)
1 16275U 85109C   13285.56731234 -.00000222  00000-0  10000-3 0  3810
2 16275 014.3663 023.2900 0005036 131.2210 228.8209 00.99956601 91800
0 OPTUS A2 (AUSSAT 2)
1 16275U 85109C   13286.56770110 -.00000233  00000-0  10000-3 0  3820
2 16275 014.3675 023.2787 0004591 137.8913 222.1403 00.99956499 91812
0 OPTUS A2 (AUSSAT 2)
1 16275U 85109C   13287.56808179 -.00000243  00000-0  10000-3 0  3830
2 16275 014.3687 023.2673 0004366 151.7342 208.2812 00.99956385 91824
0 OPTUS A2 (AUSSAT 2)
1 16275U 85109C   13289.56884270 -.00000261  00000-0  10000-3 0  3849
2 16275 014.3712 023.2447 0004316 160.4952 199.5041 00.99956141 91849
0 OPTUS A2 (AUSSAT 2)
1 16275U 85109C   13290.56922639  .00000000  00000-0  10000-3 0  3865
2 16275 014.3737 023.2337 0004467 162.4086 197.5869 00.99952065 91859
